[
  {
    "COMMENT": "GENERATED VIA SPACETRACK.ORG API",
    "ORIGINATOR": "18 SPCS",
    "NORAD_CAT_ID": "46984",
    "OBJECT_NAME": "S6 MICHAEL FREILICH",
    "OBJECT_TYPE": "PAYLOAD",
    "CLASSIFICATION_TYPE": "U",
    "INTLDES": "20086A",
    "EPOCH": "2020-12-06 03:35:09",
    "EPOCH_MICROSECONDS": "704832",
    "MEAN_MOTION": "12.86587295",
    "ECCENTRICITY": "0.0005827",
    "INCLINATION": "66.0457",
    "RA_OF_ASC_NODE": "8.8019",
    "ARG_OF_PERICENTER": "258.7555",
    "MEAN_ANOMALY": "101.28",
    "EPHEMERIS_TYPE": "0",
    "ELEMENT_SET_NO": "999",
    "REV_AT_EPOCH": "185",
    "BSTAR": "0",
    "MEAN_MOTION_DOT": "-0.00000062",
    "MEAN_MOTION_DDOT": "0",
    "FILE": "2898587",
    "TLE_LINE0": "0 S6 MICHAEL FREILICH",
    "TLE_LINE1": "1 46984U 20086A   20341.14941788 -.00000062  00000-0  00000-0 0  9998",
    "TLE_LINE2": "2 46984  66.0457   8.8019 0005827 258.7555 101.2800 12.86587295  1855",
    "OBJECT_ID": "2020-086A",
    "OBJECT_NUMBER": "46984",
    "SEMIMAJOR_AXIS": "7693.235",
    "PERIOD": "111.924",
    "APOGEE": "1319.583",
    "PERIGEE": "1310.617",
    "DECAYED": "0"
  },
  {
    "COMMENT": "GENERATED VIA SPACETRACK.ORG API",
    "ORIGINATOR": "18 SPCS",
    "NORAD_CAT_ID": "46984",
    "OBJECT_NAME": "S6 MICHAEL FREILICH",
    "OBJECT_TYPE": "PAYLOAD",
    "CLASSIFICATION_TYPE": "U",
    "INTLDES": "20086A",
    "EPOCH": "2020-12-06 11:02:54",
    "EPOCH_MICROSECONDS": "138048",
    "MEAN_MOTION": "12.86587169",
    "ECCENTRICITY": "0.0005858",
    "INCLINATION": "66.0459",
    "RA_OF_ASC_NODE": "8.1495",
    "ARG_OF_PERICENTER": "259.1433",
    "MEAN_ANOMALY": "100.8902",
    "EPHEMERIS_TYPE": "0",
    "ELEMENT_SET_NO": "999",
    "REV_AT_EPOCH": "189",
    "BSTAR": "0",
    "MEAN_MOTION_DOT": "-0.00000062",
    "MEAN_MOTION_DDOT": "0",
    "FILE": "2898589",
    "TLE_LINE0": "0 S6 MICHAEL FREILICH",
    "TLE_LINE1": "1 46984U 20086A   20341.46034882 -.00000062 +00000-0 +00000-0 0  9991",
    "TLE_LINE2": "2 46984 066.0459 008.1495 0005858 259.1433 100.8902 12.86587169001894",
    "OBJECT_ID": "2020-086A",
    "OBJECT_NUMBER": "46984",
    "SEMIMAJOR_AXIS": "7693.236",
    "PERIOD": "111.924",
    "APOGEE": "1319.607",
    "PERIGEE": "1310.594",
    "DECAYED": "0"
  },
  {
    "COMMENT": "GENERATED VIA SPACETRACK.ORG API",
    "ORIGINATOR": "18 SPCS",
    "NORAD_CAT_ID": "46984",
    "OBJECT_NAME": "S6 MICHAEL FREILICH",
    "OBJECT_TYPE": "PAYLOAD",
    "CLASSIFICATION_TYPE": "U",
    "INTLDES": "20086A",
    "EPOCH": "2020-12-06 12:54:50",
    "EPOCH_MICROSECONDS": "287392",
    "MEAN_MOTION": "12.86587099",
    "ECCENTRICITY": "0.0005867",
    "INCLINATION": "66.0456",
    "RA_OF_ASC_NODE": "7.9862",
    "ARG_OF_PERICENTER": "259.6577",
    "MEAN_ANOMALY": "100.3769",
    "EPHEMERIS_TYPE": "0",
    "ELEMENT_SET_NO": "999",
    "REV_AT_EPOCH": "190",
    "BSTAR": "0",
    "MEAN_MOTION_DOT": "-0.00000062",
    "MEAN_MOTION_DDOT": "0",
    "FILE": "2898774",
    "TLE_LINE0": "0 S6 MICHAEL FREILICH",
    "TLE_LINE1": "1 46984U 20086A   20341.53808203 -.00000062  00000-0  00000-0 0  9995",
    "TLE_LINE2": "2 46984  66.0456   7.9862 0005867 259.6577 100.3769 12.86587099  1900",
    "OBJECT_ID": "2020-086A",
    "OBJECT_NUMBER": "46984",
    "SEMIMAJOR_AXIS": "7693.236",
    "PERIOD": "111.924",
    "APOGEE": "1319.614",
    "PERIGEE": "1310.587",
    "DECAYED": "0"
  },
  {
    "COMMENT": "GENERATED VIA SPACETRACK.ORG API",
    "ORIGINATOR": "18 SPCS",
    "NORAD_CAT_ID": "46984",
    "OBJECT_NAME": "S6 MICHAEL FREILICH",
    "OBJECT_TYPE": "PAYLOAD",
    "CLASSIFICATION_TYPE": "U",
    "INTLDES": "20086A",
    "EPOCH": "2020-12-06 12:54:50",
    "EPOCH_MICROSECONDS": "287392",
    "MEAN_MOTION": "12.86587099",
    "ECCENTRICITY": "0.0005867",
    "INCLINATION": "66.0456",
    "RA_OF_ASC_NODE": "7.9862",
    "ARG_OF_PERICENTER": "259.6577",
    "MEAN_ANOMALY": "100.3769",
    "EPHEMERIS_TYPE": "0",
    "ELEMENT_SET_NO": "999",
    "REV_AT_EPOCH": "190",
    "BSTAR": "0",
    "MEAN_MOTION_DOT": "-0.00000062",
    "MEAN_MOTION_DDOT": "0",
    "FILE": "2898775",
    "TLE_LINE0": "0 S6 MICHAEL FREILICH",
    "TLE_LINE1": "1 46984U 20086A   20341.53808203 -.00000062 +00000-0 +00000-0 0  9995",
    "TLE_LINE2": "2 46984 066.0456 007.9862 0005867 259.6577 100.3769 12.86587099001900",
    "OBJECT_ID": "2020-086A",
    "OBJECT_NUMBER": "46984",
    "SEMIMAJOR_AXIS": "7693.236",
    "PERIOD": "111.924",
    "APOGEE": "1319.614",
    "PERIGEE": "1310.587",
    "DECAYED": "0"
  },
  {
    "COMMENT": "GENERATED VIA SPACETRACK.ORG API",
    "ORIGINATOR": "18 SPCS",
    "NORAD_CAT_ID": "46984",
    "OBJECT_NAME": "S6 MICHAEL FREILICH",
    "OBJECT_TYPE": "PAYLOAD",
    "CLASSIFICATION_TYPE": "U",
    "INTLDES": "20086A",
    "EPOCH": "2020-12-07 01:58:23",
    "EPOCH_MICROSECONDS": "43360",
    "MEAN_MOTION": "12.86587019",
    "ECCENTRICITY": "0.0005834",
    "INCLINATION": "66.0458",
    "RA_OF_ASC_NODE": "6.8443",
    "ARG_OF_PERICENTER": "259.8757",
    "MEAN_ANOMALY": "100.1583",
    "EPHEMERIS_TYPE": "0",
    "ELEMENT_SET_NO": "999",
    "REV_AT_EPOCH": "197",
    "BSTAR": "0",
    "MEAN_MOTION_DOT": "-0.00000062",
    "MEAN_MOTION_DDOT": "0",
    "FILE": "2899013",
    "TLE_LINE0": "0 S6 MICHAEL FREILICH",
    "TLE_LINE1": "1 46984U 20086A   20342.08221115 -.00000062  00000-0  00000-0 0  9997",
    "TLE_LINE2": "2 46984  66.0458   6.8443 0005834 259.8757 100.1583 12.86587019  1972",
    "OBJECT_ID": "2020-086A",
    "OBJECT_NUMBER": "46984",
    "SEMIMAJOR_AXIS": "7693.236",
    "PERIOD": "111.924",
    "APOGEE": "1319.589",
    "PERIGEE": "1310.613",
    "DECAYED": "0"
  },
  {
    "COMMENT": "GENERATED VIA SPACETRACK.ORG API",
    "ORIGINATOR": "18 SPCS",
    "NORAD_CAT_ID": "46984",
    "OBJECT_NAME": "S6 MICHAEL FREILICH",
    "OBJECT_TYPE": "PAYLOAD",
    "CLASSIFICATION_TYPE": "U",
    "INTLDES": "20086A",
    "EPOCH": "2020-12-07 09:26:07",
    "EPOCH_MICROSECONDS": "503360",
    "MEAN_MOTION": "12.86586851",
    "ECCENTRICITY": "0.0005844",
    "INCLINATION": "66.0457",
    "RA_OF_ASC_NODE": "6.1909",
    "ARG_OF_PERICENTER": "259.4838",
    "MEAN_ANOMALY": "100.55",
    "EPHEMERIS_TYPE": "0",
    "ELEMENT_SET_NO": "999",
    "REV_AT_EPOCH": "201",
    "BSTAR": "0",
    "MEAN_MOTION_DOT": "-0.00000062",
    "MEAN_MOTION_DDOT": "0",
    "FILE": "2899016",
    "TLE_LINE0": "0 S6 MICHAEL FREILICH",
    "TLE_LINE1": "1 46984U 20086A   20342.39314240 -.00000062 +00000-0 +00000-0 0  9993",
    "TLE_LINE2": "2 46984 066.0457 006.1909 0005844 259.4838 100.5500 12.86586851002010",
    "OBJECT_ID": "2020-086A",
    "OBJECT_NUMBER": "46984",
    "SEMIMAJOR_AXIS": "7693.237",
    "PERIOD": "111.924",
    "APOGEE": "1319.598",
    "PERIGEE": "1310.606",
    "DECAYED": "0"
  },
  {
    "COMMENT": "GENERATED VIA SPACETRACK.ORG API",
    "ORIGINATOR": "18 SPCS",
    "NORAD_CAT_ID": "46984",
    "OBJECT_NAME": "S6 MICHAEL FREILICH",
    "OBJECT_TYPE": "PAYLOAD",
    "CLASSIFICATION_TYPE": "U",
    "INTLDES": "20086A",
    "EPOCH": "2020-12-08 02:13:32",
    "EPOCH_MICROSECONDS": "505312",
    "MEAN_MOTION": "12.86586753",
    "ECCENTRICITY": "0.0005817",
    "INCLINATION": "66.0455",
    "RA_OF_ASC_NODE": "4.7214",
    "ARG_OF_PERICENTER": "258.8643",
    "MEAN_ANOMALY": "101.1715",
    "EPHEMERIS_TYPE": "0",
    "ELEMENT_SET_NO": "999",
    "REV_AT_EPOCH": "210",
    "BSTAR": "0",
    "MEAN_MOTION_DOT": "-0.00000062",
    "MEAN_MOTION_DDOT": "0",
    "FILE": "2899345",
    "TLE_LINE0": "0 S6 MICHAEL FREILICH",
    "TLE_LINE1": "1 46984U 20086A   20343.09273733 -.00000062  00000-0  00000+0 0  9991",
    "TLE_LINE2": "2 46984  66.0455   4.7214 0005817 258.8643 101.1715 12.86586753  2104",
    "OBJECT_ID": "2020-086A",
    "OBJECT_NUMBER": "46984",
    "SEMIMAJOR_AXIS": "7693.237",
    "PERIOD": "111.924",
    "APOGEE": "1319.577",
    "PERIGEE": "1310.627",
    "DECAYED": "0"
  },
  {
    "COMMENT": "GENERATED VIA SPACETRACK.ORG API",
    "ORIGINATOR": "18 SPCS",
    "NORAD_CAT_ID": "46984",
    "OBJECT_NAME": "S6 MICHAEL FREILICH",
    "OBJECT_TYPE": "PAYLOAD",
    "CLASSIFICATION_TYPE": "U",
    "INTLDES": "20086A",
    "EPOCH": "2020-12-08 02:13:32",
    "EPOCH_MICROSECONDS": "505312",
    "MEAN_MOTION": "12.86586753",
    "ECCENTRICITY": "0.0005817",
    "INCLINATION": "66.0455",
    "RA_OF_ASC_NODE": "4.7214",
    "ARG_OF_PERICENTER": "258.8643",
    "MEAN_ANOMALY": "101.1715",
    "EPHEMERIS_TYPE": "0",
    "ELEMENT_SET_NO": "999",
    "REV_AT_EPOCH": "210",
    "BSTAR": "0",
    "MEAN_MOTION_DOT": "-0.00000062",
    "MEAN_MOTION_DDOT": "0",
    "FILE": "2899533",
    "TLE_LINE0": "0 S6 MICHAEL FREILICH",
    "TLE_LINE1": "1 46984U 20086A   20343.09273733 -.00000062  00000-0  00000-0 0  9992",
    "TLE_LINE2": "2 46984  66.0455   4.7214 0005817 258.8643 101.1715 12.86586753  2104",
    "OBJECT_ID": "2020-086A",
    "OBJECT_NUMBER": "46984",
    "SEMIMAJOR_AXIS": "7693.237",
    "PERIOD": "111.924",
    "APOGEE": "1319.577",
    "PERIGEE": "1310.627",
    "DECAYED": "0"
  }
]